[
    {
        "Altitude(m)": 622205.8575979398,
        "Argument of Periapsis(deg)": 0.0,
        "Eccentricity": 0.0,
        "Inclination(deg)": 60.0,
        "Latitude(deg)": -52.16240811108015,
        "Longitude(deg)": 172.7002794359226,
        "Mean Anomaly(deg)": 245.4545,
        "RAAN(deg)": 45.0,
        "Satellite Name": "Test1 213",
        "Satellite Number": 213,
        "Semi-Major Axis(m)": 6980739.136638005,
        "Time(s)": 0
    },
    {
        "Altitude(m)": 622344.7646142201,
        "Argument of Periapsis(deg)": 0.00010418945913296404,
        "Eccentricity": 0.0,
        "Inclination(deg)": 60.0,
        "Latitude(deg)": -52.519988933648825,
        "Longitude(deg)": 173.48148983529703,
        "Mean Anomaly(deg)": 246.07460614546184,
        "RAAN(deg)": 44.99957995086026,
        "Satellite Name": "Test1 213",
        "Satellite Number": 213,
        "Semi-Major Axis(m)": 6980739.136638005,
        "Time(s)": 10
    }
]